{"type": "FeatureCollection", "features": [ {"type": "Feature", "properties": {"norad_id": 32110, "name": "FENGYUN 1C DEB", "group": "fengyun-1c-debris", "lat": -70.5516926914815, "lon": -36.708288051066276, "alt_km": 794.9832123440765, "timestamp": "2025-12-27T04:40:45.790937+00:00", "meta": {"OBJECT_NAME": "FENGYUN 1C DEB", "OBJECT_ID": "1999-025CRC", "EPOCH": "2025-12-22T23:22:37.139808", "MEAN_MOTION": 14.28961563, "ECCENTRICITY": 0.00335496, "INCLINATION": 99.5437, "RA_OF_ASC_NODE": 167.13, "ARG_OF_PERICENTER": 337.3668, "MEAN_ANOMALY": 174.1359, "EPHEMERIS_TYPE": 0, "CLASSIFICATION_TYPE": "U", "NORAD_CAT_ID": 32110, "ELEMENT_SET_NO": 999, "REV_AT_EPOCH": 64534, "BSTAR": 0.0014667226, "MEAN_MOTION_DOT": 3.68e-05, "MEAN_MOTION_DDOT": 0}, "tle": {"line1": "1 32110U 99025CRC 25356.97404097  .00003680  00000+0  14667-2 0  9995", "line2": "2 32110  99.5437 167.1300 0033549 337.3668 174.1359 14.28961563645341"}}, "geometry": {"type": "Point", "coordinates": [-36.708288051066276, -70.5516926914815]}}, {"type": "Feature", "properties": {"norad_id": 32111, "name": "FENGYUN 1C DEB", "group": "fengyun-1c-debris", "lat": 26.487815273625895, "lon": -3.7139429009461042, "alt_km": 846.1794659901088, "timestamp": "2025-12-27T04:40:45.790947+00:00", "meta": {"OBJECT_NAME": "FENGYUN 1C DEB", "OBJECT_ID": "1999-025CRD", "EPOCH": "2025-12-26T23:38:42.986400", "MEAN_MOTION": 14.31561626, "ECCENTRICITY": 0.0120451, "INCLINATION": 98.4439, "RA_OF_ASC_NODE": 0.3271, "ARG_OF_PERICENTER": 162.6715, "MEAN_ANOMALY": 224.8342, "EPHEMERIS_TYPE": 0, "CLASSIFICATION_TYPE": "U", "NORAD_CAT_ID": 32111, "ELEMENT_SET_NO": 999, "REV_AT_EPOCH": 96235, "BSTAR": 0.00020672226, "MEAN_MOTION_DOT": 5.52e-06, "MEAN_MOTION_DDOT": 0}, "tle": {"line1": "1 32111U 99025CRD 25360.98521975  .00000552  00000+0  20672-3 0  9996", "line2": "2 32111  98.4439   0.3271 0120451 162.6715 224.8342 14.31561626962356"}}, "geometry": {"type": "Point", "coordinates": [-3.7139429009461042, 26.487815273625895]}}, {"type": "Feature", "properties": {"norad_id": 32113, "name": "FENGYUN 1C DEB", "group": "fengyun-1c-debris", "lat": 32.65127244607544, "lon": -138.49136828215978, "alt_km": 776.2049670166161, "timestamp": "2025-12-27T04:40:45.790956+00:00", "meta": {"OBJECT_NAME": "FENGYUN 1C DEB", "OBJECT_ID": "1999-025CRF", "EPOCH": "2025-12-22T20:39:08.544384", "MEAN_MOTION": 13.9458115, "ECCENTRICITY": 0.0238461, "INCLINATION": 99.0255, "RA_OF_ASC_NODE": 31.4218, "ARG_OF_PERICENTER": 198.943, "MEAN_ANOMALY": 160.2746, "EPHEMERIS_TYPE": 0, "CLASSIFICATION_TYPE": "U", "NORAD_CAT_ID": 32113, "ELEMENT_SET_NO": 999, "REV_AT_EPOCH": 63027, "BSTAR": 0.0006327, "MEAN_MOTION_DOT": 1.027e-05, "MEAN_MOTION_DDOT": 0}, "tle": {"line1": "1 32113U 99025CRF 25356.86051556  .00001027  00000+0  63270-3 0  9992", "line2": "2 32113  99.0255  31.4218 0238461 198.9430 160.2746 13.94581150630270"}}, "geometry": {"type": "Point", "coordinates": [-138.49136828215978, 32.65127244607544]}}, {"type": "Feature", "properties": {"norad_id": 32114, "name": "FENGYUN 1C DEB", "group": "fengyun-1c-debris", "lat": -67.73625501971222, "lon": -83.7862680907227, "alt_km": 624.1286261511423, "timestamp": "2025-12-27T04:40:45.790966+00:00", "meta": {"OBJECT_NAME": "FENGYUN 1C DEB", "OBJECT_ID": "1999-025CRG", "EPOCH": "2025-12-06T13:19:21.641376", "MEAN_MOTION": 14.76489439, "ECCENTRICITY": 0.00447682, "INCLINATION": 99.9287, "RA_OF_ASC_NODE": 96.1919, "ARG_OF_PERICENTER": 3.5911, "MEAN_ANOMALY": 356.5605, "EPHEMERIS_TYPE": 0, "CLASSIFICATION_TYPE": "U", "NORAD_CAT_ID": 32114, "ELEMENT_SET_NO": 999, "REV_AT_EPOCH": 65638, "BSTAR": 0.0040574802, "MEAN_MOTION_DOT": 0.0002877, "MEAN_MOTION_DDOT": 0}, "tle": {"line1": "1 32114U 99025CRG 25340.55511159  .00028770  00000+0  40575-2 0  9998", "line2": "2 32114  99.9287  96.1919 0044768   3.5911 356.5605 14.76489439656383"}}, "geometry": {"type": "Point", "coordinates": [-83.7862680907227, -67.73625501971222]}}, {"type": "Feature", "properties": {"norad_id": 32117, "name": "FENGYUN 1C DEB", "group": "fengyun-1c-debris", "lat": 0.3885473200214606, "lon": -133.70697430434055, "alt_km": 826.8569347435587, "timestamp": "2025-12-27T04:40:45.790976+00:00", "meta": {"OBJECT_NAME": "FENGYUN 1C DEB", "OBJECT_ID": "1999-025CRK", "EPOCH": "2025-12-24T23:33:52.526880", "MEAN_MOTION": 14.23993924, "ECCENTRICITY": 0.00267877, "INCLINATION": 98.6105, "RA_OF_ASC_NODE": 44.0668, "ARG_OF_PERICENTER": 56.7289, "MEAN_ANOMALY": 303.6451, "EPHEMERIS_TYPE": 0, "CLASSIFICATION_TYPE": "U", "NORAD_CAT_ID": 32117, "ELEMENT_SET_NO": 999, "REV_AT_EPOCH": 94971, "BSTAR": 0.00099983564, "MEAN_MOTION_DOT": 2.261e-05, "MEAN_MOTION_DDOT": 0}, "tle": {"line1": "1 32117U 99025CRK 25358.98185795  .00002261  00000+0  99984-3 0  9996", "line2": "2 32117  98.6105  44.0668 0026787  56.7289 303.6451 14.23993924949718"}}, "geometry": {"type": "Point", "coordinates": [-133.70697430434055, 0.3885473200214606]}}, {"type": "Feature", "properties": {"norad_id": 32119, "name": "FENGYUN 1C DEB", "group": "fengyun-1c-debris", "lat": -6.327294319374027, "lon": 43.827494379877514, "alt_km": 949.5958514163713, "timestamp": "2025-12-27T04:40:45.790986+00:00", "meta": {"OBJECT_NAME": "FENGYUN 1C DEB", "OBJECT_ID": "1999-025CRM", "EPOCH": "2025-12-21T09:08:50.463168", "MEAN_MOTION": 14.02839478, "ECCENTRICITY": 0.00860891, "INCLINATION": 99.8866, "RA_OF_ASC_NODE": 218.6288, "ARG_OF_PERICENTER": 29.2524, "MEAN_ANOMALY": 331.342, "EPHEMERIS_TYPE": 0, "CLASSIFICATION_TYPE": "U", "NORAD_CAT_ID": 32119, "ELEMENT_SET_NO": 999, "REV_AT_EPOCH": 93849, "BSTAR": 0.00056371909, "MEAN_MOTION_DOT": 8.5e-06, "MEAN_MOTION_DDOT": 0}, "tle": {"line1": "1 32119U 99025CRM 25355.38113962  .00000850  00000+0  56372-3 0  9992", "line2": "2 32119  99.8866 218.6288 0086089  29.2524 331.3420 14.02839478938499"}}, "geometry": {"type": "Point", "coordinates": [43.827494379877514, -6.327294319374027]}}, {"type": "Feature", "properties": {"norad_id": 32123, "name": "FENGYUN 1C DEB", "group": "fengyun-1c-debris", "lat": -80.19643287692047, "lon": -75.48521622765269, "alt_km": 587.8240612345417, "timestamp": "2025-12-27T04:40:45.790996+00:00", "meta": {"OBJECT_NAME": "FENGYUN 1C DEB", "OBJECT_ID": "1999-025CRR", "EPOCH": "2025-12-26T17:41:38.567616", "MEAN_MOTION": 14.6151274, "ECCENTRICITY": 0.01594685, "INCLINATION": 98.9414, "RA_OF_ASC_NODE": 169.6841, "ARG_OF_PERICENTER": 250.0973, "MEAN_ANOMALY": 128.4507, "EPHEMERIS_TYPE": 0, "CLASSIFICATION_TYPE": "U", "NORAD_CAT_ID": 32123, "ELEMENT_SET_NO": 999, "REV_AT_EPOCH": 71579, "BSTAR": 0.00037604754, "MEAN_MOTION_DOT": 2.169e-05, "MEAN_MOTION_DDOT": 0}, "tle": {"line1": "1 32123U 99025CRR 25360.73725194  .00002169  00000+0  37605-3 0  9991", "line2": "2 32123  98.9414 169.6841 0159468 250.0973 128.4507 14.61512740715799"}}, "geometry": {"type": "Point", "coordinates": [-75.48521622765269, -80.19643287692047]}}, {"type": "Feature", "properties": {"norad_id": 32125, "name": "FENGYUN 1C DEB", "group": "fengyun-1c-debris", "lat": 42.507260998273104, "lon": 171.55022965323707, "alt_km": 750.8874706107363, "timestamp": "2025-12-27T04:40:45.791006+00:00", "meta": {"OBJECT_NAME": "FENGYUN 1C DEB", "OBJECT_ID": "1999-025CRT", "EPOCH": "2025-12-23T16:44:51.530496", "MEAN_MOTION": 14.70223503, "ECCENTRICITY": 0.01727232, "INCLINATION": 99.0646, "RA_OF_ASC_NODE": 339.2508, "ARG_OF_PERICENTER": 289.2149, "MEAN_ANOMALY": 69.0435, "EPHEMERIS_TYPE": 0, "CLASSIFICATION_TYPE": "U", "NORAD_CAT_ID": 32125, "ELEMENT_SET_NO": 999, "REV_AT_EPOCH": 70684, "BSTAR": 0.0023171985, "MEAN_MOTION_DOT": 0.00017568, "MEAN_MOTION_DDOT": 0}, "tle": {"line1": "1 32125U 99025CRT 25357.69781864  .00017568  00000+0  23172-2 0  9992", "line2": "2 32125  99.0646 339.2508 0172723 289.2149  69.0435 14.70223503706845"}}, "geometry": {"type": "Point", "coordinates": [171.55022965323707, 42.507260998273104]}}, {"type": "Feature", "properties": {"norad_id": 32126, "name": "FENGYUN 1C DEB", "group": "fengyun-1c-debris", "lat": 41.37730884572172, "lon": 64.3301915436794, "alt_km": 1004.0510492160392, "timestamp": "2025-12-27T04:40:45.791016+00:00", "meta": {"OBJECT_NAME": "FENGYUN 1C DEB", "OBJECT_ID": "1999-025CRU", "EPOCH": "2025-12-14T22:11:18.681792", "MEAN_MOTION": 13.56802944, "ECCENTRICITY": 0.02807648, "INCLINATION": 99.1097, "RA_OF_ASC_NODE": 224.8335, "ARG_OF_PERICENTER": 249.9124, "MEAN_ANOMALY": 107.16, "EPHEMERIS_TYPE": 0, "CLASSIFICATION_TYPE": "U", "NORAD_CAT_ID": 32126, "ELEMENT_SET_NO": 999, "REV_AT_EPOCH": 61744, "BSTAR": 0.001056147, "MEAN_MOTION_DOT": 9.24e-06, "MEAN_MOTION_DDOT": 0}, "tle": {"line1": "1 32126U 99025CRU 25348.92452178  .00000924  00000+0  10561-2 0  9998", "line2": "2 32126  99.1097 224.8335 0280764 249.9124 107.1600 13.56802944617445"}}, "geometry": {"type": "Point", "coordinates": [64.3301915436794, 41.37730884572172]}}, {"type": "Feature", "properties": {"norad_id": 32128, "name": "FENGYUN 1C DEB", "group": "fengyun-1c-debris", "lat": -49.568635291036514, "lon": -143.61901685720684, "alt_km": 717.1857026027601, "timestamp": "2025-12-27T04:40:45.791026+00:00", "meta": {"OBJECT_NAME": "FENGYUN 1C DEB", "OBJECT_ID": "1999-025CRW", "EPOCH": "2025-12-26T20:42:10.498464", "MEAN_MOTION": 13.94265017, "ECCENTRICITY": 0.03975057, "INCLINATION": 99.0297, "RA_OF_ASC_NODE": 46.8116, "ARG_OF_PERICENTER": 184.1472, "MEAN_ANOMALY": 175.6362, "EPHEMERIS_TYPE": 0, "CLASSIFICATION_TYPE": "U", "NORAD_CAT_ID": 32128, "ELEMENT_SET_NO": 999, "REV_AT_EPOCH": 63182, "BSTAR": 0.00075033194, "MEAN_MOTION_DOT": 1.879e-05, "MEAN_MOTION_DDOT": 0}, "tle": {"line1": "1 32128U 99025CRW 25360.86262151  .00001879  00000+0  75033-3 0  9993", "line2": "2 32128  99.0297  46.8116 0397505 184.1472 175.6362 13.94265017631824"}}, "geometry": {"type": "Point", "coordinates": [-143.61901685720684, -49.568635291036514]}}]}